name,district,division,latitude,longitude,email,phone
"Ramna Police Station","Dhaka","Dhaka",23.8103,90.4125,isfakiqbal@iut-dhaka.edu,01837121760
"Motijheel Police Station","Dhaka","Dhaka",23.8592,90.4302,isfakiqbal@iut-dhaka.edu,01837121760
"Gulshan Police Station","Dhaka","Dhaka",23.7621,90.3951,isfakiqbal@iut-dhaka.edu,01837121760
"Dhanmondi Police Station","Dhaka","Dhaka",23.8205,90.3751,isfakiqbal@iut-dhaka.edu,01837121760
"Mirpur Police Station","Dhaka","Dhaka",23.7838,90.4785,isfakiqbal@iut-dhaka.edu,01837121760
"Pallabi Police Station","Dhaka","Dhaka",23.8849,90.3689,isfakiqbal@iut-dhaka.edu,01837121760
"Uttara Police Station","Dhaka","Dhaka",23.8832,90.3384,isfakiqbal@iut-dhaka.edu,01837121760
"Cantonment Police Station","Dhaka","Dhaka",23.8174,90.3455,isfakiqbal@iut-dhaka.edu,01837121760
"Tejgaon Police Station","Dhaka","Dhaka",23.7572,90.3925,isfakiqbal@iut-dhaka.edu,01837121760
"Badda Police Station","Dhaka","Dhaka",23.7940,90.4533,isfakiqbal@iut-dhaka.edu,01837121760
"Khilgaon Police Station","Dhaka","Dhaka",23.8743,90.4767,isfakiqbal@iut-dhaka.edu,01837121760
"Shahbagh Police Station","Dhaka","Dhaka",23.8829,90.3940,isfakiqbal@iut-dhaka.edu,01837121760
"Lalbagh Police Station","Dhaka","Dhaka",23.7414,90.4113,isfakiqbal@iut-dhaka.edu,01837121760
"Kotwali Police Station","Dhaka","Dhaka",23.7787,90.3753,isfakiqbal@iut-dhaka.edu,01837121760
"Sutrapur Police Station","Dhaka","Dhaka",23.8566,90.4517,isfakiqbal@iut-dhaka.edu,01837121760
"Demra Police Station","Dhaka","Dhaka",23.7900,90.4294,isfakiqbal@iut-dhaka.edu,01837121760
"Jatrabari Police Station","Dhaka","Dhaka",23.8671,90.3685,isfakiqbal@iut-dhaka.edu,01837121760
"Kadamtali Police Station","Dhaka","Dhaka",23.7672,90.3769,isfakiqbal@iut-dhaka.edu,01837121760
"Shyampur Police Station","Dhaka","Dhaka",23.7865,90.3375,isfakiqbal@iut-dhaka.edu,01837121760
"Sabujbagh Police Station","Dhaka","Dhaka",23.8573,90.3929,isfakiqbal@iut-dhaka.edu,01837121760
"Mohammadpur Police Station","Dhaka","Dhaka",23.8357,90.4023,isfakiqbal@iut-dhaka.edu,01837121760
"Adabor Police Station","Dhaka","Dhaka",23.7872,90.4801,isfakiqbal@iut-dhaka.edu,01837121760
"Sher-e-Bangla Nagar Police Station","Dhaka","Dhaka",23.7939,90.3574,isfakiqbal@iut-dhaka.edu,01837121760
"Hazaribagh Police Station","Dhaka","Dhaka",23.7677,90.4463,isfakiqbal@iut-dhaka.edu,01837121760
"New Market Police Station","Dhaka","Dhaka",23.7358,90.3952,isfakiqbal@iut-dhaka.edu,01837121760
"Chawkbazar Police Station","Dhaka","Dhaka",23.7641,90.3940,isfakiqbal@iut-dhaka.edu,01837121760
"Bangshal Police Station","Dhaka","Dhaka",23.8628,90.4503,isfakiqbal@iut-dhaka.edu,01837121760
"Gendaria Police Station","Dhaka","Dhaka",23.8407,90.4860,isfakiqbal@iut-dhaka.edu,01837121760
"Wari Police Station","Dhaka","Dhaka",23.8268,90.4199,isfakiqbal@iut-dhaka.edu,01837121760
"Kamrangirchar Police Station","Dhaka","Dhaka",23.8516,90.4223,isfakiqbal@iut-dhaka.edu,01837121760
"Turag Police Station","Dhaka","Dhaka",23.7754,90.4498,isfakiqbal@iut-dhaka.edu,01837121760
"Kafrul Police Station","Dhaka","Dhaka",23.7884,90.3917,isfakiqbal@iut-dhaka.edu,01837121760
"Shah Ali Police Station","Dhaka","Dhaka",23.8088,90.3618,isfakiqbal@iut-dhaka.edu,01837121760
"Dakshinkhan Police Station","Dhaka","Dhaka",23.8239,90.4744,isfakiqbal@iut-dhaka.edu,01837121760
"Uttarkhan Police Station","Dhaka","Dhaka",23.8695,90.3629,isfakiqbal@iut-dhaka.edu,01837121760
"Bhatara Police Station","Dhaka","Dhaka",23.7775,90.4033,isfakiqbal@iut-dhaka.edu,01837121760
"Khilkhet Police Station","Dhaka","Dhaka",23.8003,90.4615,isfakiqbal@iut-dhaka.edu,01837121760
"Vatara Police Station","Dhaka","Dhaka",23.8770,90.3910,isfakiqbal@iut-dhaka.edu,01837121760
"Banani Police Station","Dhaka","Dhaka",23.8052,90.4324,isfakiqbal@iut-dhaka.edu,01837121760
"Rampura Police Station","Dhaka","Dhaka",23.8711,90.3790,isfakiqbal@iut-dhaka.edu,01837121760
"Hatirjheel Police Station","Dhaka","Dhaka",23.8625,90.3529,isfakiqbal@iut-dhaka.edu,01837121760
"Mugda Police Station","Dhaka","Dhaka",23.7445,90.3640,isfakiqbal@iut-dhaka.edu,01837121760
"Rupnagar Police Station","Dhaka","Dhaka",23.8358,90.4100,isfakiqbal@iut-dhaka.edu,01837121760
"Bhashantek Police Station","Dhaka","Dhaka",23.8313,90.4433,isfakiqbal@iut-dhaka.edu,01837121760
"Darussalam Police Station","Dhaka","Dhaka",23.7621,90.3420,isfakiqbal@iut-dhaka.edu,01837121760
"Gandaria Police Station","Dhaka","Dhaka",23.8205,90.4813,isfakiqbal@iut-dhaka.edu,01837121760
"Hazaribagh Police Station","Dhaka","Dhaka",23.8067,90.4076,isfakiqbal@iut-dhaka.edu,01837121760
"Kalabagan Police Station","Dhaka","Dhaka",23.7977,90.4155,isfakiqbal@iut-dhaka.edu,01837121760
"Paltan Police Station","Dhaka","Dhaka",23.7796,90.3851,isfakiqbal@iut-dhaka.edu,01837121760
"Shahjahanpur Police Station","Dhaka","Dhaka",23.7621,90.3577,isfakiqbal@iut-dhaka.edu,01837121760
"Vatara Police Station","Dhaka","Dhaka",23.8816,90.3817,isfakiqbal@iut-dhaka.edu,01837121760
"Gazipur Sadar Police Station","Gazipur","Dhaka",24.0023,90.4264,isfakiqbal@iut-dhaka.edu,01837121760
"Tongi Police Station","Gazipur","Dhaka",23.9614,90.4486,isfakiqbal@iut-dhaka.edu,01837121760
"Kaliakair Police Station","Gazipur","Dhaka",24.0591,90.4269,isfakiqbal@iut-dhaka.edu,01837121760
"Kapasia Police Station","Gazipur","Dhaka",23.9482,90.4318,isfakiqbal@iut-dhaka.edu,01837121760
"Sreepur Police Station","Gazipur","Dhaka",23.9496,90.3785,isfakiqbal@iut-dhaka.edu,01837121760
"Kaliganj Police Station","Gazipur","Dhaka",24.0510,90.3624,isfakiqbal@iut-dhaka.edu,01837121760
"Joydebpur Police Station","Gazipur","Dhaka",23.9523,90.4988,isfakiqbal@iut-dhaka.edu,01837121760
"Gacha Police Station","Gazipur","Dhaka",24.0250,90.4823,isfakiqbal@iut-dhaka.edu,01837121760
"Bason Police Station","Gazipur","Dhaka",24.0555,90.4063,isfakiqbal@iut-dhaka.edu,01837121760
"Konabari Police Station","Gazipur","Dhaka",24.0260,90.4527,isfakiqbal@iut-dhaka.edu,01837121760
"Kashimpur Police Station","Gazipur","Dhaka",24.0699,90.4705,isfakiqbal@iut-dhaka.edu,01837121760
"Pubail Police Station","Gazipur","Dhaka",24.0637,90.3818,isfakiqbal@iut-dhaka.edu,01837121760
"Narayanganj Sadar Police Station","Narayanganj","Dhaka",23.6337,90.4965,isfakiqbal@iut-dhaka.edu,01837121760
"Fatullah Police Station","Narayanganj","Dhaka",23.6254,90.5004,isfakiqbal@iut-dhaka.edu,01837121760
"Siddhirganj Police Station","Narayanganj","Dhaka",23.6508,90.4570,isfakiqbal@iut-dhaka.edu,01837121760
"Bandar Police Station","Narayanganj","Dhaka",23.6855,90.4828,isfakiqbal@iut-dhaka.edu,01837121760
"Rupganj Police Station","Narayanganj","Dhaka",23.5590,90.4772,isfakiqbal@iut-dhaka.edu,01837121760
"Araihazar Police Station","Narayanganj","Dhaka",23.6761,90.4909,isfakiqbal@iut-dhaka.edu,01837121760
"Sonargaon Police Station","Narayanganj","Dhaka",23.6991,90.4731,isfakiqbal@iut-dhaka.edu,01837121760
"Tangail Sadar Police Station","Tangail","Dhaka",24.2636,89.9179,isfakiqbal@iut-dhaka.edu,01837121760
"Sakhipur Police Station","Tangail","Dhaka",24.2364,89.9855,isfakiqbal@iut-dhaka.edu,01837121760
"Basail Police Station","Tangail","Dhaka",24.2059,89.9612,isfakiqbal@iut-dhaka.edu,01837121760
"Madhupur Police Station","Tangail","Dhaka",24.2628,89.8868,isfakiqbal@iut-dhaka.edu,01837121760
"Ghatail Police Station","Tangail","Dhaka",24.2497,89.9545,isfakiqbal@iut-dhaka.edu,01837121760
"Kalihati Police Station","Tangail","Dhaka",24.3139,89.9359,isfakiqbal@iut-dhaka.edu,01837121760
"Nagarpur Police Station","Tangail","Dhaka",24.2994,89.8814,isfakiqbal@iut-dhaka.edu,01837121760
"Mirzapur Police Station","Tangail","Dhaka",24.1942,89.8655,isfakiqbal@iut-dhaka.edu,01837121760
"Gopalpur Police Station","Tangail","Dhaka",24.3045,89.8821,isfakiqbal@iut-dhaka.edu,01837121760
"Delduar Police Station","Tangail","Dhaka",24.3245,89.8449,isfakiqbal@iut-dhaka.edu,01837121760
"Bhuapur Police Station","Tangail","Dhaka",24.2251,89.8876,isfakiqbal@iut-dhaka.edu,01837121760
"Dhanbari Police Station","Tangail","Dhaka",24.3180,89.9579,isfakiqbal@iut-dhaka.edu,01837121760
"Narsingdi Sadar Police Station","Narsingdi","Dhaka",23.9322,90.7154,isfakiqbal@iut-dhaka.edu,01837121760
"Belabo Police Station","Narsingdi","Dhaka",23.9034,90.7096,isfakiqbal@iut-dhaka.edu,01837121760
"Monohardi Police Station","Narsingdi","Dhaka",23.9495,90.7674,isfakiqbal@iut-dhaka.edu,01837121760
"Palash Police Station","Narsingdi","Dhaka",23.9764,90.6832,isfakiqbal@iut-dhaka.edu,01837121760
"Raipura Police Station","Narsingdi","Dhaka",23.8681,90.7901,isfakiqbal@iut-dhaka.edu,01837121760
"Shibpur Police Station","Narsingdi","Dhaka",23.8920,90.7099,isfakiqbal@iut-dhaka.edu,01837121760
"Manikganj Sadar Police Station","Manikganj","Dhaka",23.8644,90.0047,isfakiqbal@iut-dhaka.edu,01837121760
"Singair Police Station","Manikganj","Dhaka",23.8759,90.0177,isfakiqbal@iut-dhaka.edu,01837121760
"Shibalaya Police Station","Manikganj","Dhaka",23.9194,90.0048,isfakiqbal@iut-dhaka.edu,01837121760
"Saturia Police Station","Manikganj","Dhaka",23.8492,90.0745,isfakiqbal@iut-dhaka.edu,01837121760
"Harirampur Police Station","Manikganj","Dhaka",23.7945,89.9347,isfakiqbal@iut-dhaka.edu,01837121760
"Ghior Police Station","Manikganj","Dhaka",23.8029,90.0078,isfakiqbal@iut-dhaka.edu,01837121760
"Daulatpur Police Station","Manikganj","Dhaka",23.8290,90.0486,isfakiqbal@iut-dhaka.edu,01837121760
"Munshiganj Sadar Police Station","Munshiganj","Dhaka",23.5422,90.5305,isfakiqbal@iut-dhaka.edu,01837121760
"Sreenagar Police Station","Munshiganj","Dhaka",23.5603,90.5014,isfakiqbal@iut-dhaka.edu,01837121760
"Sirajdikhan Police Station","Munshiganj","Dhaka",23.6152,90.5446,isfakiqbal@iut-dhaka.edu,01837121760
"Louhajang Police Station","Munshiganj","Dhaka",23.6144,90.4991,isfakiqbal@iut-dhaka.edu,01837121760
"Gajaria Police Station","Munshiganj","Dhaka",23.4926,90.5588,isfakiqbal@iut-dhaka.edu,01837121760
"Tongibari Police Station","Munshiganj","Dhaka",23.5614,90.4907,isfakiqbal@iut-dhaka.edu,01837121760
"Faridpur Sadar Police Station","Faridpur","Dhaka",23.6071,89.8429,isfakiqbal@iut-dhaka.edu,01837121760
"Boalmari Police Station","Faridpur","Dhaka",23.5456,89.8695,isfakiqbal@iut-dhaka.edu,01837121760
"Alfadanga Police Station","Faridpur","Dhaka",23.6690,89.8787,isfakiqbal@iut-dhaka.edu,01837121760
"Madhukhali Police Station","Faridpur","Dhaka",23.6263,89.8138,isfakiqbal@iut-dhaka.edu,01837121760
"Bhanga Police Station","Faridpur","Dhaka",23.5434,89.8120,isfakiqbal@iut-dhaka.edu,01837121760
"Nagarkanda Police Station","Faridpur","Dhaka",23.6156,89.9051,isfakiqbal@iut-dhaka.edu,01837121760
"Charbhadrasan Police Station","Faridpur","Dhaka",23.5828,89.9048,isfakiqbal@iut-dhaka.edu,01837121760
"Sadarpur Police Station","Faridpur","Dhaka",23.6665,89.7710,isfakiqbal@iut-dhaka.edu,01837121760
"Saltha Police Station","Faridpur","Dhaka",23.6540,89.8556,isfakiqbal@iut-dhaka.edu,01837121760
"Gopalganj Sadar Police Station","Gopalganj","Dhaka",23.0051,89.8266,isfakiqbal@iut-dhaka.edu,01837121760
"Kashiani Police Station","Gopalganj","Dhaka",22.9789,89.7906,isfakiqbal@iut-dhaka.edu,01837121760
"Kotalipara Police Station","Gopalganj","Dhaka",23.0180,89.9000,isfakiqbal@iut-dhaka.edu,01837121760
"Muksudpur Police Station","Gopalganj","Dhaka",23.0171,89.8556,isfakiqbal@iut-dhaka.edu,01837121760
"Tungipara Police Station","Gopalganj","Dhaka",23.0467,89.7519,isfakiqbal@iut-dhaka.edu,01837121760
"Madaripur Sadar Police Station","Madaripur","Dhaka",23.1641,90.1897,isfakiqbal@iut-dhaka.edu,01837121760
"Kalkini Police Station","Madaripur","Dhaka",23.2261,90.2366,isfakiqbal@iut-dhaka.edu,01837121760
"Rajoir Police Station","Madaripur","Dhaka",23.1331,90.1578,isfakiqbal@iut-dhaka.edu,01837121760
"Shibchar Police Station","Madaripur","Dhaka",23.1524,90.1775,isfakiqbal@iut-dhaka.edu,01837121760
"Rajbari Sadar Police Station","Rajbari","Dhaka",23.7574,89.6445,isfakiqbal@iut-dhaka.edu,01837121760
"Goalanda Police Station","Rajbari","Dhaka",23.7225,89.5916,isfakiqbal@iut-dhaka.edu,01837121760
"Pangsha Police Station","Rajbari","Dhaka",23.7356,89.5932,isfakiqbal@iut-dhaka.edu,01837121760
"Baliakandi Police Station","Rajbari","Dhaka",23.7488,89.6193,isfakiqbal@iut-dhaka.edu,01837121760
"Kalukhali Police Station","Rajbari","Dhaka",23.7174,89.6968,isfakiqbal@iut-dhaka.edu,01837121760
"Shariatpur Sadar Police Station","Shariatpur","Dhaka",23.2423,90.4348,isfakiqbal@iut-dhaka.edu,01837121760
"Naria Police Station","Shariatpur","Dhaka",23.3019,90.3714,isfakiqbal@iut-dhaka.edu,01837121760
"Zajira Police Station","Shariatpur","Dhaka",23.1852,90.5086,isfakiqbal@iut-dhaka.edu,01837121760
"Gosairhat Police Station","Shariatpur","Dhaka",23.2490,90.4566,isfakiqbal@iut-dhaka.edu,01837121760
"Bhedarganj Police Station","Shariatpur","Dhaka",23.2540,90.4893,isfakiqbal@iut-dhaka.edu,01837121760
"Damudya Police Station","Shariatpur","Dhaka",23.2016,90.4960,isfakiqbal@iut-dhaka.edu,01837121760
"Kishoreganj Sadar Police Station","Kishoreganj","Dhaka",24.4449,90.7766,isfakiqbal@iut-dhaka.edu,01837121760
"Hossainpur Police Station","Kishoreganj","Dhaka",24.3993,90.8174,isfakiqbal@iut-dhaka.edu,01837121760
"Pakundia Police Station","Kishoreganj","Dhaka",24.4732,90.7218,isfakiqbal@iut-dhaka.edu,01837121760
"Katiadi Police Station","Kishoreganj","Dhaka",24.3831,90.7410,isfakiqbal@iut-dhaka.edu,01837121760
"Karimganj Police Station","Kishoreganj","Dhaka",24.5013,90.7214,isfakiqbal@iut-dhaka.edu,01837121760
"Tarail Police Station","Kishoreganj","Dhaka",24.5106,90.8494,isfakiqbal@iut-dhaka.edu,01837121760
"Itna Police Station","Kishoreganj","Dhaka",24.4315,90.7323,isfakiqbal@iut-dhaka.edu,01837121760
"Mithamain Police Station","Kishoreganj","Dhaka",24.5030,90.7608,isfakiqbal@iut-dhaka.edu,01837121760
"Austagram Police Station","Kishoreganj","Dhaka",24.3810,90.7071,isfakiqbal@iut-dhaka.edu,01837121760
"Nikli Police Station","Kishoreganj","Dhaka",24.4842,90.8023,isfakiqbal@iut-dhaka.edu,01837121760
"Bajitpur Police Station","Kishoreganj","Dhaka",24.4674,90.7207,isfakiqbal@iut-dhaka.edu,01837121760
"Kuliarchar Police Station","Kishoreganj","Dhaka",24.5146,90.7421,isfakiqbal@iut-dhaka.edu,01837121760
"Bhairab Police Station","Kishoreganj","Dhaka",24.3767,90.8197,isfakiqbal@iut-dhaka.edu,01837121760
"Kotwali Police Station","Chattogram","Chattogram",22.3569,91.7832,isfakiqbal@iut-dhaka.edu,01837121760
"Panchlaish Police Station","Chattogram","Chattogram",22.3203,91.8139,isfakiqbal@iut-dhaka.edu,01837121760
"Double Mooring Police Station","Chattogram","Chattogram",22.3957,91.8399,isfakiqbal@iut-dhaka.edu,01837121760
"Pahartali Police Station","Chattogram","Chattogram",22.3493,91.7625,isfakiqbal@iut-dhaka.edu,01837121760
"Khulshi Police Station","Chattogram","Chattogram",22.3305,91.7884,isfakiqbal@iut-dhaka.edu,01837121760
"Patenga Police Station","Chattogram","Chattogram",22.4156,91.8028,isfakiqbal@iut-dhaka.edu,01837121760
"Halishahar Police Station","Chattogram","Chattogram",22.4028,91.7581,isfakiqbal@iut-dhaka.edu,01837121760
"Bandar Police Station","Chattogram","Chattogram",22.3838,91.8443,isfakiqbal@iut-dhaka.edu,01837121760
"Chandgaon Police Station","Chattogram","Chattogram",22.4144,91.7992,isfakiqbal@iut-dhaka.edu,01837121760
"Karnaphuli Police Station","Chattogram","Chattogram",22.4296,91.7451,isfakiqbal@iut-dhaka.edu,01837121760
"Bakalia Police Station","Chattogram","Chattogram",22.3618,91.7339,isfakiqbal@iut-dhaka.edu,01837121760
"Akbarshah Police Station","Chattogram","Chattogram",22.3400,91.7154,isfakiqbal@iut-dhaka.edu,01837121760
"Bayazid Bostami Police Station","Chattogram","Chattogram",22.3449,91.7828,isfakiqbal@iut-dhaka.edu,01837121760
"EPZ Police Station","Chattogram","Chattogram",22.3842,91.7840,isfakiqbal@iut-dhaka.edu,01837121760
"Sadarghat Police Station","Chattogram","Chattogram",22.4143,91.7445,isfakiqbal@iut-dhaka.edu,01837121760
"Raozan Police Station","Chattogram","Chattogram",22.4010,91.7986,isfakiqbal@iut-dhaka.edu,01837121760
"Rangunia Police Station","Chattogram","Chattogram",22.3057,91.7707,isfakiqbal@iut-dhaka.edu,01837121760
"Fatikchhari Police Station","Chattogram","Chattogram",22.3515,91.8072,isfakiqbal@iut-dhaka.edu,01837121760
"Hathazari Police Station","Chattogram","Chattogram",22.3066,91.8555,isfakiqbal@iut-dhaka.edu,01837121760
"Mirsharai Police Station","Chattogram","Chattogram",22.3486,91.8015,isfakiqbal@iut-dhaka.edu,01837121760
"Sitakunda Police Station","Chattogram","Chattogram",22.3042,91.7097,isfakiqbal@iut-dhaka.edu,01837121760
"Lohagara Police Station","Chattogram","Chattogram",22.3714,91.7318,isfakiqbal@iut-dhaka.edu,01837121760
"Satkania Police Station","Chattogram","Chattogram",22.4262,91.8338,isfakiqbal@iut-dhaka.edu,01837121760
"Boalkhali Police Station","Chattogram","Chattogram",22.3142,91.7191,isfakiqbal@iut-dhaka.edu,01837121760
"Anwara Police Station","Chattogram","Chattogram",22.2925,91.7466,isfakiqbal@iut-dhaka.edu,01837121760
"Banshkhali Police Station","Chattogram","Chattogram",22.4197,91.7099,isfakiqbal@iut-dhaka.edu,01837121760
"Patiya Police Station","Chattogram","Chattogram",22.4280,91.7873,isfakiqbal@iut-dhaka.edu,01837121760
"Sandwip Police Station","Chattogram","Chattogram",22.3928,91.8273,isfakiqbal@iut-dhaka.edu,01837121760
"Bhujpur Police Station","Chattogram","Chattogram",22.3866,91.7867,isfakiqbal@iut-dhaka.edu,01837121760
"Jorarganj Police Station","Chattogram","Chattogram",22.3979,91.7911,isfakiqbal@iut-dhaka.edu,01837121760
"Cox's Bazar Sadar Police Station","Cox's Bazar","Chattogram",21.4272,92.0058,isfakiqbal@iut-dhaka.edu,01837121760
"Chakaria Police Station","Cox's Bazar","Chattogram",21.4263,91.9440,isfakiqbal@iut-dhaka.edu,01837121760
"Maheshkhali Police Station","Cox's Bazar","Chattogram",21.4488,92.0134,isfakiqbal@iut-dhaka.edu,01837121760
"Teknaf Police Station","Cox's Bazar","Chattogram",21.4016,92.0405,isfakiqbal@iut-dhaka.edu,01837121760
"Ramu Police Station","Cox's Bazar","Chattogram",21.4286,91.9821,isfakiqbal@iut-dhaka.edu,01837121760
"Kutubdia Police Station","Cox's Bazar","Chattogram",21.4954,92.0446,isfakiqbal@iut-dhaka.edu,01837121760
"Ukhiya Police Station","Cox's Bazar","Chattogram",21.3759,91.9601,isfakiqbal@iut-dhaka.edu,01837121760
"Pekua Police Station","Cox's Bazar","Chattogram",21.4056,91.9718,isfakiqbal@iut-dhaka.edu,01837121760
"Cumilla Sadar Police Station","Cumilla","Chattogram",23.4607,91.1809,isfakiqbal@iut-dhaka.edu,01837121760
"Laksam Police Station","Cumilla","Chattogram",23.5111,91.2056,isfakiqbal@iut-dhaka.edu,01837121760
"Debidwar Police Station","Cumilla","Chattogram",23.5054,91.1133,isfakiqbal@iut-dhaka.edu,01837121760
"Muradnagar Police Station","Cumilla","Chattogram",23.5332,91.2300,isfakiqbal@iut-dhaka.edu,01837121760
"Daudkandi Police Station","Cumilla","Chattogram",23.3968,91.1305,isfakiqbal@iut-dhaka.edu,01837121760
"Chauddagram Police Station","Cumilla","Chattogram",23.4830,91.1376,isfakiqbal@iut-dhaka.edu,01837121760
"Brahmanpara Police Station","Cumilla","Chattogram",23.5090,91.1455,isfakiqbal@iut-dhaka.edu,01837121760
"Burichang Police Station","Cumilla","Chattogram",23.5275,91.2367,isfakiqbal@iut-dhaka.edu,01837121760
"Chandina Police Station","Cumilla","Chattogram",23.5110,91.1278,isfakiqbal@iut-dhaka.edu,01837121760
"Barura Police Station","Cumilla","Chattogram",23.5181,91.1767,isfakiqbal@iut-dhaka.edu,01837121760
"Monohargonj Police Station","Cumilla","Chattogram",23.5037,91.2341,isfakiqbal@iut-dhaka.edu,01837121760
"Homna Police Station","Cumilla","Chattogram",23.4369,91.1587,isfakiqbal@iut-dhaka.edu,01837121760
"Titas Police Station","Cumilla","Chattogram",23.5314,91.1247,isfakiqbal@iut-dhaka.edu,01837121760
"Meghna Police Station","Cumilla","Chattogram",23.4282,91.1131,isfakiqbal@iut-dhaka.edu,01837121760
"Nangalkot Police Station","Cumilla","Chattogram",23.4750,91.1684,isfakiqbal@iut-dhaka.edu,01837121760
"Sadar South Police Station","Cumilla","Chattogram",23.5333,91.2369,isfakiqbal@iut-dhaka.edu,01837121760
"Brahmanbaria Sadar Police Station","Brahmanbaria","Chattogram",23.9570,91.1119,isfakiqbal@iut-dhaka.edu,01837121760
"Ashuganj Police Station","Brahmanbaria","Chattogram",24.0035,91.1359,isfakiqbal@iut-dhaka.edu,01837121760
"Nasirnagar Police Station","Brahmanbaria","Chattogram",23.8849,91.0658,isfakiqbal@iut-dhaka.edu,01837121760
"Nabinagar Police Station","Brahmanbaria","Chattogram",23.9012,91.0496,isfakiqbal@iut-dhaka.edu,01837121760
"Sarail Police Station","Brahmanbaria","Chattogram",23.9754,91.0389,isfakiqbal@iut-dhaka.edu,01837121760
"Shahbazpur Police Station","Brahmanbaria","Chattogram",23.9018,91.0371,isfakiqbal@iut-dhaka.edu,01837121760
"Kasba Police Station","Brahmanbaria","Chattogram",23.9407,91.0531,isfakiqbal@iut-dhaka.edu,01837121760
"Akhaura Police Station","Brahmanbaria","Chattogram",23.9363,91.1850,isfakiqbal@iut-dhaka.edu,01837121760
"Bancharampur Police Station","Brahmanbaria","Chattogram",23.9457,91.1828,isfakiqbal@iut-dhaka.edu,01837121760
"Bijoynagar Police Station","Brahmanbaria","Chattogram",24.0150,91.1661,isfakiqbal@iut-dhaka.edu,01837121760
"Chandpur Sadar Police Station","Chandpur","Chattogram",23.2333,90.6667,isfakiqbal@iut-dhaka.edu,01837121760
"Faridganj Police Station","Chandpur","Chattogram",23.1714,90.6040,isfakiqbal@iut-dhaka.edu,01837121760
"Haimchar Police Station","Chandpur","Chattogram",23.1779,90.6645,isfakiqbal@iut-dhaka.edu,01837121760
"Haziganj Police Station","Chandpur","Chattogram",23.2351,90.6491,isfakiqbal@iut-dhaka.edu,01837121760
"Kachua Police Station","Chandpur","Chattogram",23.2672,90.6060,isfakiqbal@iut-dhaka.edu,01837121760
"Matlab North Police Station","Chandpur","Chattogram",23.1980,90.7360,isfakiqbal@iut-dhaka.edu,01837121760
"Matlab South Police Station","Chandpur","Chattogram",23.2698,90.6445,isfakiqbal@iut-dhaka.edu,01837121760
"Shahrasti Police Station","Chandpur","Chattogram",23.1949,90.7255,isfakiqbal@iut-dhaka.edu,01837121760
"Feni Sadar Police Station","Feni","Chattogram",23.0186,91.3966,isfakiqbal@iut-dhaka.edu,01837121760
"Daganbhuiyan Police Station","Feni","Chattogram",23.0273,91.4239,isfakiqbal@iut-dhaka.edu,01837121760
"Sonagazi Police Station","Feni","Chattogram",22.9779,91.3551,isfakiqbal@iut-dhaka.edu,01837121760
"Chhagalnaiya Police Station","Feni","Chattogram",22.9529,91.3758,isfakiqbal@iut-dhaka.edu,01837121760
"Parshuram Police Station","Feni","Chattogram",22.9857,91.3272,isfakiqbal@iut-dhaka.edu,01837121760
"Fulgazi Police Station","Feni","Chattogram",23.0826,91.4345,isfakiqbal@iut-dhaka.edu,01837121760
"Noakhali Sadar Police Station","Noakhali","Chattogram",22.8696,91.0993,isfakiqbal@iut-dhaka.edu,01837121760
"Begumganj Police Station","Noakhali","Chattogram",22.9366,91.1613,isfakiqbal@iut-dhaka.edu,01837121760
"Chatkhil Police Station","Noakhali","Chattogram",22.8324,91.1039,isfakiqbal@iut-dhaka.edu,01837121760
"Companiganj Police Station","Noakhali","Chattogram",22.9235,91.0413,isfakiqbal@iut-dhaka.edu,01837121760
"Hatiya Police Station","Noakhali","Chattogram",22.9319,91.0392,isfakiqbal@iut-dhaka.edu,01837121760
"Senbagh Police Station","Noakhali","Chattogram",22.9420,91.0955,isfakiqbal@iut-dhaka.edu,01837121760
"Sonaimuri Police Station","Noakhali","Chattogram",22.9400,91.0484,isfakiqbal@iut-dhaka.edu,01837121760
"Subarnachar Police Station","Noakhali","Chattogram",22.8360,91.1404,isfakiqbal@iut-dhaka.edu,01837121760
"Kabirhat Police Station","Noakhali","Chattogram",22.8095,91.1239,isfakiqbal@iut-dhaka.edu,01837121760
"Lakshmipur Sadar Police Station","Lakshmipur","Chattogram",22.9424,90.8411,isfakiqbal@iut-dhaka.edu,01837121760
"Raipur Police Station","Lakshmipur","Chattogram",22.9532,90.8174,isfakiqbal@iut-dhaka.edu,01837121760
"Ramganj Police Station","Lakshmipur","Chattogram",22.8798,90.8639,isfakiqbal@iut-dhaka.edu,01837121760
"Ramgati Police Station","Lakshmipur","Chattogram",22.9195,90.8812,isfakiqbal@iut-dhaka.edu,01837121760
"Kamalnagar Police Station","Lakshmipur","Chattogram",22.8874,90.8626,isfakiqbal@iut-dhaka.edu,01837121760
"Khagrachhari Sadar Police Station","Khagrachhari","Chattogram",23.1192,91.9841,isfakiqbal@iut-dhaka.edu,01837121760
"Dighinala Police Station","Khagrachhari","Chattogram",23.1514,91.9119,isfakiqbal@iut-dhaka.edu,01837121760
"Panchhari Police Station","Khagrachhari","Chattogram",23.1606,92.0177,isfakiqbal@iut-dhaka.edu,01837121760
"Laxmichhari Police Station","Khagrachhari","Chattogram",23.1591,92.0164,isfakiqbal@iut-dhaka.edu,01837121760
"Mahalchhari Police Station","Khagrachhari","Chattogram",23.0986,91.9422,isfakiqbal@iut-dhaka.edu,01837121760
"Manikchhari Police Station","Khagrachhari","Chattogram",23.1279,92.0513,isfakiqbal@iut-dhaka.edu,01837121760
"Ramgarh Police Station","Khagrachhari","Chattogram",23.1550,91.9497,isfakiqbal@iut-dhaka.edu,01837121760
"Matiranga Police Station","Khagrachhari","Chattogram",23.1615,92.0562,isfakiqbal@iut-dhaka.edu,01837121760
"Guimara Police Station","Khagrachhari","Chattogram",23.0548,92.0108,isfakiqbal@iut-dhaka.edu,01837121760
"Rangamati Sadar Police Station","Rangamati","Chattogram",22.6533,92.1789,isfakiqbal@iut-dhaka.edu,01837121760
"Belaichhari Police Station","Rangamati","Chattogram",22.5861,92.2363,isfakiqbal@iut-dhaka.edu,01837121760
"Bagaichhari Police Station","Rangamati","Chattogram",22.6521,92.1061,isfakiqbal@iut-dhaka.edu,01837121760
"Barkal Police Station","Rangamati","Chattogram",22.7165,92.1251,isfakiqbal@iut-dhaka.edu,01837121760
"Juraichhari Police Station","Rangamati","Chattogram",22.6732,92.1278,isfakiqbal@iut-dhaka.edu,01837121760
"Rajasthali Police Station","Rangamati","Chattogram",22.6923,92.1460,isfakiqbal@iut-dhaka.edu,01837121760
"Kaptai Police Station","Rangamati","Chattogram",22.5787,92.1828,isfakiqbal@iut-dhaka.edu,01837121760
"Langadu Police Station","Rangamati","Chattogram",22.5919,92.1160,isfakiqbal@iut-dhaka.edu,01837121760
"Naniarchar Police Station","Rangamati","Chattogram",22.5960,92.1152,isfakiqbal@iut-dhaka.edu,01837121760
"Kaukhali Police Station","Rangamati","Chattogram",22.6458,92.1041,isfakiqbal@iut-dhaka.edu,01837121760
"Bandarban Sadar Police Station","Bandarban","Chattogram",22.1953,92.2184,isfakiqbal@iut-dhaka.edu,01837121760
"Thanchi Police Station","Bandarban","Chattogram",22.1339,92.2510,isfakiqbal@iut-dhaka.edu,01837121760
"Lama Police Station","Bandarban","Chattogram",22.1746,92.1806,isfakiqbal@iut-dhaka.edu,01837121760
"Naikhongchhari Police Station","Bandarban","Chattogram",22.1894,92.1452,isfakiqbal@iut-dhaka.edu,01837121760
"Ali Kadam Police Station","Bandarban","Chattogram",22.1889,92.2883,isfakiqbal@iut-dhaka.edu,01837121760
"Rowangchhari Police Station","Bandarban","Chattogram",22.2453,92.1733,isfakiqbal@iut-dhaka.edu,01837121760
"Ruma Police Station","Bandarban","Chattogram",22.2013,92.1747,isfakiqbal@iut-dhaka.edu,01837121760
"Boalia Police Station","Rajshahi","Rajshahi",24.3636,88.6241,isfakiqbal@iut-dhaka.edu,01837121760
"Rajpara Police Station","Rajshahi","Rajshahi",24.3111,88.6783,isfakiqbal@iut-dhaka.edu,01837121760
"Motihar Police Station","Rajshahi","Rajshahi",24.3620,88.5901,isfakiqbal@iut-dhaka.edu,01837121760
"Shah Makhdum Police Station","Rajshahi","Rajshahi",24.3934,88.5566,isfakiqbal@iut-dhaka.edu,01837121760
"Chandrima Police Station","Rajshahi","Rajshahi",24.3464,88.6914,isfakiqbal@iut-dhaka.edu,01837121760
"Katakhali Police Station","Rajshahi","Rajshahi",24.3898,88.5589,isfakiqbal@iut-dhaka.edu,01837121760
"Belpukur Police Station","Rajshahi","Rajshahi",24.3582,88.5599,isfakiqbal@iut-dhaka.edu,01837121760
"Airport Police Station","Rajshahi","Rajshahi",24.4295,88.6891,isfakiqbal@iut-dhaka.edu,01837121760
"Kashiadanga Police Station","Rajshahi","Rajshahi",24.2933,88.6335,isfakiqbal@iut-dhaka.edu,01837121760
"Kornohar Police Station","Rajshahi","Rajshahi",24.3284,88.5504,isfakiqbal@iut-dhaka.edu,01837121760
"Damkura Police Station","Rajshahi","Rajshahi",24.4071,88.6278,isfakiqbal@iut-dhaka.edu,01837121760
"Paba Police Station","Rajshahi","Rajshahi",24.4027,88.5705,isfakiqbal@iut-dhaka.edu,01837121760
"Durgapur Police Station","Rajshahi","Rajshahi",24.4365,88.6818,isfakiqbal@iut-dhaka.edu,01837121760
"Mohonpur Police Station","Rajshahi","Rajshahi",24.4063,88.6071,isfakiqbal@iut-dhaka.edu,01837121760
"Charghat Police Station","Rajshahi","Rajshahi",24.4165,88.6690,isfakiqbal@iut-dhaka.edu,01837121760
"Puthia Police Station","Rajshahi","Rajshahi",24.3814,88.6891,isfakiqbal@iut-dhaka.edu,01837121760
"Bagha Police Station","Rajshahi","Rajshahi",24.3706,88.6470,isfakiqbal@iut-dhaka.edu,01837121760
"Godagari Police Station","Rajshahi","Rajshahi",24.4310,88.6233,isfakiqbal@iut-dhaka.edu,01837121760
"Tanore Police Station","Rajshahi","Rajshahi",24.3586,88.5983,isfakiqbal@iut-dhaka.edu,01837121760
"Bagmara Police Station","Rajshahi","Rajshahi",24.3128,88.6123,isfakiqbal@iut-dhaka.edu,01837121760
"Bogura Sadar Police Station","Bogura","Rajshahi",24.8481,89.3730,isfakiqbal@iut-dhaka.edu,01837121760
"Shajahanpur Police Station","Bogura","Rajshahi",24.8909,89.3343,isfakiqbal@iut-dhaka.edu,01837121760
"Sherpur Police Station","Bogura","Rajshahi",24.9161,89.3944,isfakiqbal@iut-dhaka.edu,01837121760
"Dhunat Police Station","Bogura","Rajshahi",24.8562,89.3380,isfakiqbal@iut-dhaka.edu,01837121760
"Dhupchanchia Police Station","Bogura","Rajshahi",24.8689,89.4125,isfakiqbal@iut-dhaka.edu,01837121760
"Gabtali Police Station","Bogura","Rajshahi",24.8815,89.3224,isfakiqbal@iut-dhaka.edu,01837121760
"Kahaloo Police Station","Bogura","Rajshahi",24.8897,89.4055,isfakiqbal@iut-dhaka.edu,01837121760
"Nandigram Police Station","Bogura","Rajshahi",24.8966,89.3803,isfakiqbal@iut-dhaka.edu,01837121760
"Sariakandi Police Station","Bogura","Rajshahi",24.8899,89.4052,isfakiqbal@iut-dhaka.edu,01837121760
"Sonatala Police Station","Bogura","Rajshahi",24.9093,89.4276,isfakiqbal@iut-dhaka.edu,01837121760
"Shibganj Police Station","Bogura","Rajshahi",24.8656,89.4322,isfakiqbal@iut-dhaka.edu,01837121760
"Adamdighi Police Station","Bogura","Rajshahi",24.8920,89.3080,isfakiqbal@iut-dhaka.edu,01837121760
"Pabna Sadar Police Station","Pabna","Rajshahi",24.0063,89.2493,isfakiqbal@iut-dhaka.edu,01837121760
"Atgharia Police Station","Pabna","Rajshahi",23.9395,89.2392,isfakiqbal@iut-dhaka.edu,01837121760
"Bera Police Station","Pabna","Rajshahi",24.0232,89.2595,isfakiqbal@iut-dhaka.edu,01837121760
"Bhangura Police Station","Pabna","Rajshahi",23.9699,89.3216,isfakiqbal@iut-dhaka.edu,01837121760
"Chatmohar Police Station","Pabna","Rajshahi",23.9771,89.2860,isfakiqbal@iut-dhaka.edu,01837121760
"Faridpur Police Station","Pabna","Rajshahi",24.0306,89.2153,isfakiqbal@iut-dhaka.edu,01837121760
"Ishwardi Police Station","Pabna","Rajshahi",23.9894,89.3095,isfakiqbal@iut-dhaka.edu,01837121760
"Santhia Police Station","Pabna","Rajshahi",24.0311,89.3064,isfakiqbal@iut-dhaka.edu,01837121760
"Sujanagar Police Station","Pabna","Rajshahi",24.0532,89.2199,isfakiqbal@iut-dhaka.edu,01837121760
"Sirajganj Sadar Police Station","Sirajganj","Rajshahi",24.3141,89.5700,isfakiqbal@iut-dhaka.edu,01837121760
"Belkuchi Police Station","Sirajganj","Rajshahi",24.3438,89.5073,isfakiqbal@iut-dhaka.edu,01837121760
"Chauhali Police Station","Sirajganj","Rajshahi",24.3339,89.6255,isfakiqbal@iut-dhaka.edu,01837121760
"Kamarkhanda Police Station","Sirajganj","Rajshahi",24.3823,89.5396,isfakiqbal@iut-dhaka.edu,01837121760
"Kazipur Police Station","Sirajganj","Rajshahi",24.2636,89.5103,isfakiqbal@iut-dhaka.edu,01837121760
"Raiganj Police Station","Sirajganj","Rajshahi",24.2546,89.5867,isfakiqbal@iut-dhaka.edu,01837121760
"Shahjadpur Police Station","Sirajganj","Rajshahi",24.2848,89.5943,isfakiqbal@iut-dhaka.edu,01837121760
"Tarash Police Station","Sirajganj","Rajshahi",24.3594,89.6221,isfakiqbal@iut-dhaka.edu,01837121760
"Ullahpara Police Station","Sirajganj","Rajshahi",24.3001,89.6009,isfakiqbal@iut-dhaka.edu,01837121760
"Naogaon Sadar Police Station","Naogaon","Rajshahi",24.8105,88.9439,isfakiqbal@iut-dhaka.edu,01837121760
"Mohadevpur Police Station","Naogaon","Rajshahi",24.7629,88.9511,isfakiqbal@iut-dhaka.edu,01837121760
"Manda Police Station","Naogaon","Rajshahi",24.8824,88.9223,isfakiqbal@iut-dhaka.edu,01837121760
"Niamatpur Police Station","Naogaon","Rajshahi",24.8650,88.9990,isfakiqbal@iut-dhaka.edu,01837121760
"Porsha Police Station","Naogaon","Rajshahi",24.8153,88.9748,isfakiqbal@iut-dhaka.edu,01837121760
"Sapahar Police Station","Naogaon","Rajshahi",24.7844,88.9362,isfakiqbal@iut-dhaka.edu,01837121760
"Patnitala Police Station","Naogaon","Rajshahi",24.8314,88.8741,isfakiqbal@iut-dhaka.edu,01837121760
"Dhamoirhat Police Station","Naogaon","Rajshahi",24.8539,88.9662,isfakiqbal@iut-dhaka.edu,01837121760
"Badalgachhi Police Station","Naogaon","Rajshahi",24.8164,88.9620,isfakiqbal@iut-dhaka.edu,01837121760
"Raninagar Police Station","Naogaon","Rajshahi",24.7511,88.8970,isfakiqbal@iut-dhaka.edu,01837121760
"Atrai Police Station","Naogaon","Rajshahi",24.8281,88.9476,isfakiqbal@iut-dhaka.edu,01837121760
"Natore Sadar Police Station","Natore","Rajshahi",24.4102,89.0076,isfakiqbal@iut-dhaka.edu,01837121760
"Baraigram Police Station","Natore","Rajshahi",24.4150,88.9890,isfakiqbal@iut-dhaka.edu,01837121760
"Bagatipara Police Station","Natore","Rajshahi",24.4303,88.9547,isfakiqbal@iut-dhaka.edu,01837121760
"Lalpur Police Station","Natore","Rajshahi",24.3880,89.0753,isfakiqbal@iut-dhaka.edu,01837121760
"Naldanga Police Station","Natore","Rajshahi",24.3768,89.0592,isfakiqbal@iut-dhaka.edu,01837121760
"Singra Police Station","Natore","Rajshahi",24.4730,89.0665,isfakiqbal@iut-dhaka.edu,01837121760
"Gurudaspur Police Station","Natore","Rajshahi",24.3938,89.0382,isfakiqbal@iut-dhaka.edu,01837121760
"Chapainawabganj Sadar Police Station","Chapainawabganj","Rajshahi",24.5902,88.2774,isfakiqbal@iut-dhaka.edu,01837121760
"Gomastapur Police Station","Chapainawabganj","Rajshahi",24.5190,88.3132,isfakiqbal@iut-dhaka.edu,01837121760
"Nachole Police Station","Chapainawabganj","Rajshahi",24.5498,88.2493,isfakiqbal@iut-dhaka.edu,01837121760
"Bholahat Police Station","Chapainawabganj","Rajshahi",24.6533,88.2597,isfakiqbal@iut-dhaka.edu,01837121760
"Shibganj Police Station","Chapainawabganj","Rajshahi",24.5527,88.3001,isfakiqbal@iut-dhaka.edu,01837121760
"Joypurhat Sadar Police Station","Joypurhat","Rajshahi",25.0968,89.0227,isfakiqbal@iut-dhaka.edu,01837121760
"Akkelpur Police Station","Joypurhat","Rajshahi",25.0507,89.0830,isfakiqbal@iut-dhaka.edu,01837121760
"Kalai Police Station","Joypurhat","Rajshahi",25.0535,89.0755,isfakiqbal@iut-dhaka.edu,01837121760
"Khetlal Police Station","Joypurhat","Rajshahi",25.0668,88.9484,isfakiqbal@iut-dhaka.edu,01837121760
"Panchbibi Police Station","Joypurhat","Rajshahi",25.1158,89.0060,isfakiqbal@iut-dhaka.edu,01837121760
"Khulna Sadar Police Station","Khulna","Khulna",22.8456,89.5403,isfakiqbal@iut-dhaka.edu,01837121760
"Sonadanga Police Station","Khulna","Khulna",22.8337,89.5809,isfakiqbal@iut-dhaka.edu,01837121760
"Khalishpur Police Station","Khulna","Khulna",22.9158,89.4661,isfakiqbal@iut-dhaka.edu,01837121760
"Daulatpur Police Station","Khulna","Khulna",22.8122,89.5893,isfakiqbal@iut-dhaka.edu,01837121760
"Khan Jahan Ali Police Station","Khulna","Khulna",22.8355,89.5854,isfakiqbal@iut-dhaka.edu,01837121760
"Aranghata Police Station","Khulna","Khulna",22.8827,89.4996,isfakiqbal@iut-dhaka.edu,01837121760
"Harintana Police Station","Khulna","Khulna",22.8288,89.4968,isfakiqbal@iut-dhaka.edu,01837121760
"Labanchara Police Station","Khulna","Khulna",22.7909,89.5344,isfakiqbal@iut-dhaka.edu,01837121760
"Koyra Police Station","Khulna","Khulna",22.8992,89.5149,isfakiqbal@iut-dhaka.edu,01837121760
"Dumuria Police Station","Khulna","Khulna",22.7949,89.5514,isfakiqbal@iut-dhaka.edu,01837121760
"Terokhada Police Station","Khulna","Khulna",22.8838,89.5141,isfakiqbal@iut-dhaka.edu,01837121760
"Rupsha Police Station","Khulna","Khulna",22.9024,89.5298,isfakiqbal@iut-dhaka.edu,01837121760
"Paikgachha Police Station","Khulna","Khulna",22.7962,89.5621,isfakiqbal@iut-dhaka.edu,01837121760
"Phultala Police Station","Khulna","Khulna",22.8621,89.5836,isfakiqbal@iut-dhaka.edu,01837121760
"Batiaghata Police Station","Khulna","Khulna",22.8526,89.5170,isfakiqbal@iut-dhaka.edu,01837121760
"Dacope Police Station","Khulna","Khulna",22.8442,89.5853,isfakiqbal@iut-dhaka.edu,01837121760
"Dighalia Police Station","Khulna","Khulna",22.7774,89.4857,isfakiqbal@iut-dhaka.edu,01837121760
"Kotwali Police Station","Jashore","Khulna",23.1634,89.2182,isfakiqbal@iut-dhaka.edu,01837121760
"Jhikargachha Police Station","Jashore","Khulna",23.2346,89.1535,isfakiqbal@iut-dhaka.edu,01837121760
"Sharsha Police Station","Jashore","Khulna",23.1084,89.2275,isfakiqbal@iut-dhaka.edu,01837121760
"Benapole Port Police Station","Jashore","Khulna",23.1349,89.2713,isfakiqbal@iut-dhaka.edu,01837121760
"Chaugachha Police Station","Jashore","Khulna",23.2248,89.1932,isfakiqbal@iut-dhaka.edu,01837121760
"Abhaynagar Police Station","Jashore","Khulna",23.1330,89.2435,isfakiqbal@iut-dhaka.edu,01837121760
"Manirampur Police Station","Jashore","Khulna",23.1734,89.2419,isfakiqbal@iut-dhaka.edu,01837121760
"Bagherpara Police Station","Jashore","Khulna",23.1414,89.1582,isfakiqbal@iut-dhaka.edu,01837121760
"Keshabpur Police Station","Jashore","Khulna",23.1111,89.2509,isfakiqbal@iut-dhaka.edu,01837121760
"Satkhira Sadar Police Station","Satkhira","Khulna",22.7234,89.0552,isfakiqbal@iut-dhaka.edu,01837121760
"Assasuni Police Station","Satkhira","Khulna",22.7314,88.9840,isfakiqbal@iut-dhaka.edu,01837121760
"Debhata Police Station","Satkhira","Khulna",22.7429,89.0382,isfakiqbal@iut-dhaka.edu,01837121760
"Kalaroa Police Station","Satkhira","Khulna",22.7709,89.0407,isfakiqbal@iut-dhaka.edu,01837121760
"Kaliganj Police Station","Satkhira","Khulna",22.6489,89.1106,isfakiqbal@iut-dhaka.edu,01837121760
"Shyamnagar Police Station","Satkhira","Khulna",22.6843,89.0261,isfakiqbal@iut-dhaka.edu,01837121760
"Tala Police Station","Satkhira","Khulna",22.7623,89.0814,isfakiqbal@iut-dhaka.edu,01837121760
"Patkelghata Police Station","Satkhira","Khulna",22.7962,89.0472,isfakiqbal@iut-dhaka.edu,01837121760
"Bagerhat Sadar Police Station","Bagerhat","Khulna",22.6515,89.7859,isfakiqbal@iut-dhaka.edu,01837121760
"Chitalmari Police Station","Bagerhat","Khulna",22.6335,89.7164,isfakiqbal@iut-dhaka.edu,01837121760
"Fakirhat Police Station","Bagerhat","Khulna",22.6708,89.7846,isfakiqbal@iut-dhaka.edu,01837121760
"Kachua Police Station","Bagerhat","Khulna",22.5840,89.8493,isfakiqbal@iut-dhaka.edu,01837121760
"Mollahat Police Station","Bagerhat","Khulna",22.6956,89.7711,isfakiqbal@iut-dhaka.edu,01837121760
"Mongla Police Station","Bagerhat","Khulna",22.6709,89.7444,isfakiqbal@iut-dhaka.edu,01837121760
"Morrelganj Police Station","Bagerhat","Khulna",22.6245,89.7113,isfakiqbal@iut-dhaka.edu,01837121760
"Rampal Police Station","Bagerhat","Khulna",22.6018,89.7592,isfakiqbal@iut-dhaka.edu,01837121760
"Sarankhola Police Station","Bagerhat","Khulna",22.5879,89.7306,isfakiqbal@iut-dhaka.edu,01837121760
"Chuadanga Sadar Police Station","Chuadanga","Khulna",23.6402,88.8418,isfakiqbal@iut-dhaka.edu,01837121760
"Alamdanga Police Station","Chuadanga","Khulna",23.6752,88.8121,isfakiqbal@iut-dhaka.edu,01837121760
"Damurhuda Police Station","Chuadanga","Khulna",23.6046,88.8707,isfakiqbal@iut-dhaka.edu,01837121760
"Jibannagar Police Station","Chuadanga","Khulna",23.6299,88.8054,isfakiqbal@iut-dhaka.edu,01837121760
"Darshana Police Station","Chuadanga","Khulna",23.5754,88.7790,isfakiqbal@iut-dhaka.edu,01837121760
"Kushtia Sadar Police Station","Kushtia","Khulna",23.9013,89.1204,isfakiqbal@iut-dhaka.edu,01837121760
"Kumarkhali Police Station","Kushtia","Khulna",23.8843,89.1282,isfakiqbal@iut-dhaka.edu,01837121760
"Khoksa Police Station","Kushtia","Khulna",23.8664,89.1192,isfakiqbal@iut-dhaka.edu,01837121760
"Mirpur Police Station","Kushtia","Khulna",23.9099,89.1843,isfakiqbal@iut-dhaka.edu,01837121760
"Daulatpur Police Station","Kushtia","Khulna",23.8492,89.1264,isfakiqbal@iut-dhaka.edu,01837121760
"Bheramara Police Station","Kushtia","Khulna",23.8408,89.1712,isfakiqbal@iut-dhaka.edu,01837121760
"Islami University Police Station","Kushtia","Khulna",23.8866,89.1704,isfakiqbal@iut-dhaka.edu,01837121760
"Magura Sadar Police Station","Magura","Khulna",23.4873,89.4199,isfakiqbal@iut-dhaka.edu,01837121760
"Mohammadpur Police Station","Magura","Khulna",23.4967,89.4594,isfakiqbal@iut-dhaka.edu,01837121760
"Shalikha Police Station","Magura","Khulna",23.4816,89.4561,isfakiqbal@iut-dhaka.edu,01837121760
"Sreepur Police Station","Magura","Khulna",23.4534,89.3958,isfakiqbal@iut-dhaka.edu,01837121760
"Meherpur Sadar Police Station","Meherpur","Khulna",23.7622,88.6318,isfakiqbal@iut-dhaka.edu,01837121760
"Gangni Police Station","Meherpur","Khulna",23.7995,88.6730,isfakiqbal@iut-dhaka.edu,01837121760
"Mujibnagar Police Station","Meherpur","Khulna",23.7570,88.6065,isfakiqbal@iut-dhaka.edu,01837121760
"Narail Sadar Police Station","Narail","Khulna",23.1725,89.5127,isfakiqbal@iut-dhaka.edu,01837121760
"Lohagara Police Station","Narail","Khulna",23.2357,89.4599,isfakiqbal@iut-dhaka.edu,01837121760
"Kalia Police Station","Narail","Khulna",23.1365,89.5747,isfakiqbal@iut-dhaka.edu,01837121760
"Naragati Police Station","Narail","Khulna",23.2188,89.5610,isfakiqbal@iut-dhaka.edu,01837121760
"Jhenaidah Sadar Police Station","Jhenaidah","Khulna",23.5450,89.1726,isfakiqbal@iut-dhaka.edu,01837121760
"Shailkupa Police Station","Jhenaidah","Khulna",23.6144,89.2046,isfakiqbal@iut-dhaka.edu,01837121760
"Harinakunda Police Station","Jhenaidah","Khulna",23.5590,89.1534,isfakiqbal@iut-dhaka.edu,01837121760
"Kaliganj Police Station","Jhenaidah","Khulna",23.5225,89.1278,isfakiqbal@iut-dhaka.edu,01837121760
"Kotchandpur Police Station","Jhenaidah","Khulna",23.5309,89.2000,isfakiqbal@iut-dhaka.edu,01837121760
"Maheshpur Police Station","Jhenaidah","Khulna",23.5646,89.2438,isfakiqbal@iut-dhaka.edu,01837121760
"Kotwali Police Station","Barishal","Barishal",22.7010,90.3535,isfakiqbal@iut-dhaka.edu,01837121760
"Kawnia Police Station","Barishal","Barishal",22.7667,90.3895,isfakiqbal@iut-dhaka.edu,01837121760
"Airport Police Station","Barishal","Barishal",22.6275,90.3842,isfakiqbal@iut-dhaka.edu,01837121760
"Bandar Police Station","Barishal","Barishal",22.7248,90.3375,isfakiqbal@iut-dhaka.edu,01837121760
"Agailjhara Police Station","Barishal","Barishal",22.6398,90.3307,isfakiqbal@iut-dhaka.edu,01837121760
"Babuganj Police Station","Barishal","Barishal",22.6574,90.3649,isfakiqbal@iut-dhaka.edu,01837121760
"Bakerganj Police Station","Barishal","Barishal",22.6633,90.3010,isfakiqbal@iut-dhaka.edu,01837121760
"Banaripara Police Station","Barishal","Barishal",22.7623,90.3908,isfakiqbal@iut-dhaka.edu,01837121760
"Gaurnadi Police Station","Barishal","Barishal",22.6766,90.3322,isfakiqbal@iut-dhaka.edu,01837121760
"Hizla Police Station","Barishal","Barishal",22.6497,90.3996,isfakiqbal@iut-dhaka.edu,01837121760
"Mehendiganj Police Station","Barishal","Barishal",22.6434,90.3385,isfakiqbal@iut-dhaka.edu,01837121760
"Muladi Police Station","Barishal","Barishal",22.6542,90.2828,isfakiqbal@iut-dhaka.edu,01837121760
"Wazirpur Police Station","Barishal","Barishal",22.6804,90.2941,isfakiqbal@iut-dhaka.edu,01837121760
"Patuakhali Sadar Police Station","Patuakhali","Barishal",22.3596,90.3299,isfakiqbal@iut-dhaka.edu,01837121760
"Bauphal Police Station","Patuakhali","Barishal",22.4051,90.3508,isfakiqbal@iut-dhaka.edu,01837121760
"Dashmina Police Station","Patuakhali","Barishal",22.4126,90.3566,isfakiqbal@iut-dhaka.edu,01837121760
"Galachipa Police Station","Patuakhali","Barishal",22.3362,90.3992,isfakiqbal@iut-dhaka.edu,01837121760
"Kalapara Police Station","Patuakhali","Barishal",22.3394,90.3929,isfakiqbal@iut-dhaka.edu,01837121760
"Mirzaganj Police Station","Patuakhali","Barishal",22.3907,90.3482,isfakiqbal@iut-dhaka.edu,01837121760
"Rangabali Police Station","Patuakhali","Barishal",22.4174,90.3010,isfakiqbal@iut-dhaka.edu,01837121760
"Dumki Police Station","Patuakhali","Barishal",22.3851,90.2884,isfakiqbal@iut-dhaka.edu,01837121760
"Mohipur Police Station","Patuakhali","Barishal",22.3469,90.2812,isfakiqbal@iut-dhaka.edu,01837121760
"Bhola Sadar Police Station","Bhola","Barishal",22.6859,90.6482,isfakiqbal@iut-dhaka.edu,01837121760
"Burhanuddin Police Station","Bhola","Barishal",22.6656,90.7074,isfakiqbal@iut-dhaka.edu,01837121760
"Char Fasson Police Station","Bhola","Barishal",22.7474,90.5918,isfakiqbal@iut-dhaka.edu,01837121760
"Daulatkhan Police Station","Bhola","Barishal",22.6772,90.5784,isfakiqbal@iut-dhaka.edu,01837121760
"Lalmohan Police Station","Bhola","Barishal",22.7548,90.7199,isfakiqbal@iut-dhaka.edu,01837121760
"Manpura Police Station","Bhola","Barishal",22.7498,90.6796,isfakiqbal@iut-dhaka.edu,01837121760
"Tazumuddin Police Station","Bhola","Barishal",22.6997,90.5877,isfakiqbal@iut-dhaka.edu,01837121760
"Sashibhusan Police Station","Bhola","Barishal",22.7000,90.6196,isfakiqbal@iut-dhaka.edu,01837121760
"South Aicha Police Station","Bhola","Barishal",22.7525,90.6277,isfakiqbal@iut-dhaka.edu,01837121760
"Pirojpur Sadar Police Station","Pirojpur","Barishal",22.5841,89.9720,isfakiqbal@iut-dhaka.edu,01837121760
"Bhandaria Police Station","Pirojpur","Barishal",22.5093,90.0099,isfakiqbal@iut-dhaka.edu,01837121760
"Kawkhali Police Station","Pirojpur","Barishal",22.5784,89.9590,isfakiqbal@iut-dhaka.edu,01837121760
"Mathbaria Police Station","Pirojpur","Barishal",22.5235,90.0289,isfakiqbal@iut-dhaka.edu,01837121760
"Nazirpur Police Station","Pirojpur","Barishal",22.5825,89.9055,isfakiqbal@iut-dhaka.edu,01837121760
"Nesarabad Police Station","Pirojpur","Barishal",22.5823,89.9830,isfakiqbal@iut-dhaka.edu,01837121760
"Indurkani Police Station","Pirojpur","Barishal",22.5908,89.9714,isfakiqbal@iut-dhaka.edu,01837121760
"Barguna Sadar Police Station","Barguna","Barishal",22.1573,90.1224,isfakiqbal@iut-dhaka.edu,01837121760
"Amtali Police Station","Barguna","Barishal",22.1968,90.1544,isfakiqbal@iut-dhaka.edu,01837121760
"Bamna Police Station","Barguna","Barishal",22.1340,90.1454,isfakiqbal@iut-dhaka.edu,01837121760
"Betagi Police Station","Barguna","Barishal",22.1688,90.1610,isfakiqbal@iut-dhaka.edu,01837121760
"Patharghata Police Station","Barguna","Barishal",22.1936,90.1726,isfakiqbal@iut-dhaka.edu,01837121760
"Taltali Police Station","Barguna","Barishal",22.1971,90.0628,isfakiqbal@iut-dhaka.edu,01837121760
"Jhalokati Sadar Police Station","Jhalokati","Barishal",22.6406,90.1987,isfakiqbal@iut-dhaka.edu,01837121760
"Kathalia Police Station","Jhalokati","Barishal",22.5932,90.1926,isfakiqbal@iut-dhaka.edu,01837121760
"Nalchity Police Station","Jhalokati","Barishal",22.6621,90.1908,isfakiqbal@iut-dhaka.edu,01837121760
"Rajapur Police Station","Jhalokati","Barishal",22.5977,90.1468,isfakiqbal@iut-dhaka.edu,01837121760
"Kotwali Police Station","Sylhet","Sylhet",24.8949,91.8687,isfakiqbal@iut-dhaka.edu,01837121760
"Jalalabad Police Station","Sylhet","Sylhet",24.9197,91.8469,isfakiqbal@iut-dhaka.edu,01837121760
"Airport Police Station","Sylhet","Sylhet",24.8406,91.8440,isfakiqbal@iut-dhaka.edu,01837121760
"Moglabazar Police Station","Sylhet","Sylhet",24.9536,91.9076,isfakiqbal@iut-dhaka.edu,01837121760
"South Surma Police Station","Sylhet","Sylhet",24.8571,91.9258,isfakiqbal@iut-dhaka.edu,01837121760
"Shahparan Police Station","Sylhet","Sylhet",24.9070,91.9190,isfakiqbal@iut-dhaka.edu,01837121760
"Balaganj Police Station","Sylhet","Sylhet",24.9080,91.7942,isfakiqbal@iut-dhaka.edu,01837121760
"Beanibazar Police Station","Sylhet","Sylhet",24.8795,91.8020,isfakiqbal@iut-dhaka.edu,01837121760
"Bishwanath Police Station","Sylhet","Sylhet",24.8758,91.7991,isfakiqbal@iut-dhaka.edu,01837121760
"Companiganj Police Station","Sylhet","Sylhet",24.9150,91.8409,isfakiqbal@iut-dhaka.edu,01837121760
"Fenchuganj Police Station","Sylhet","Sylhet",24.8603,91.8275,isfakiqbal@iut-dhaka.edu,01837121760
"Golapganj Police Station","Sylhet","Sylhet",24.9250,91.9210,isfakiqbal@iut-dhaka.edu,01837121760
"Gowainghat Police Station","Sylhet","Sylhet",24.8926,91.8857,isfakiqbal@iut-dhaka.edu,01837121760
"Jaintiapur Police Station","Sylhet","Sylhet",24.8440,91.8784,isfakiqbal@iut-dhaka.edu,01837121760
"Kanaighat Police Station","Sylhet","Sylhet",24.9518,91.8693,isfakiqbal@iut-dhaka.edu,01837121760
"Osmani Nagar Police Station","Sylhet","Sylhet",24.9293,91.8777,isfakiqbal@iut-dhaka.edu,01837121760
"Zakiganj Police Station","Sylhet","Sylhet",24.9411,91.8601,isfakiqbal@iut-dhaka.edu,01837121760
"Moulvibazar Sadar Police Station","Moulvibazar","Sylhet",24.4829,91.7774,isfakiqbal@iut-dhaka.edu,01837121760
"Barlekha Police Station","Moulvibazar","Sylhet",24.5549,91.7744,isfakiqbal@iut-dhaka.edu,01837121760
"Juri Police Station","Moulvibazar","Sylhet",24.4694,91.7185,isfakiqbal@iut-dhaka.edu,01837121760
"Kamalganj Police Station","Moulvibazar","Sylhet",24.4683,91.7440,isfakiqbal@iut-dhaka.edu,01837121760
"Kulaura Police Station","Moulvibazar","Sylhet",24.4670,91.7942,isfakiqbal@iut-dhaka.edu,01837121760
"Rajnagar Police Station","Moulvibazar","Sylhet",24.4540,91.7482,isfakiqbal@iut-dhaka.edu,01837121760
"Sreemangal Police Station","Moulvibazar","Sylhet",24.5518,91.8473,isfakiqbal@iut-dhaka.edu,01837121760
"Sherpur Police Station","Moulvibazar","Sylhet",24.4291,91.8362,isfakiqbal@iut-dhaka.edu,01837121760
"Habiganj Sadar Police Station","Habiganj","Sylhet",24.3749,91.4155,isfakiqbal@iut-dhaka.edu,01837121760
"Ajmiriganj Police Station","Habiganj","Sylhet",24.4215,91.4471,isfakiqbal@iut-dhaka.edu,01837121760
"Bahubal Police Station","Habiganj","Sylhet",24.3484,91.4527,isfakiqbal@iut-dhaka.edu,01837121760
"Baniyachong Police Station","Habiganj","Sylhet",24.4284,91.4482,isfakiqbal@iut-dhaka.edu,01837121760
"Chunarughat Police Station","Habiganj","Sylhet",24.3126,91.4279,isfakiqbal@iut-dhaka.edu,01837121760
"Lakhai Police Station","Habiganj","Sylhet",24.3152,91.4195,isfakiqbal@iut-dhaka.edu,01837121760
"Madhabpur Police Station","Habiganj","Sylhet",24.4318,91.3660,isfakiqbal@iut-dhaka.edu,01837121760
"Nabiganj Police Station","Habiganj","Sylhet",24.4265,91.3567,isfakiqbal@iut-dhaka.edu,01837121760
"Shayestaganj Police Station","Habiganj","Sylhet",24.3729,91.3820,isfakiqbal@iut-dhaka.edu,01837121760
"Sunamganj Sadar Police Station","Sunamganj","Sylhet",25.0658,91.3956,isfakiqbal@iut-dhaka.edu,01837121760
"Bishwamvarpur Police Station","Sunamganj","Sylhet",25.1310,91.4052,isfakiqbal@iut-dhaka.edu,01837121760
"Chhatak Police Station","Sunamganj","Sylhet",25.0986,91.4271,isfakiqbal@iut-dhaka.edu,01837121760
"Derai Police Station","Sunamganj","Sylhet",25.1320,91.3917,isfakiqbal@iut-dhaka.edu,01837121760
"Dharamapasha Police Station","Sunamganj","Sylhet",25.0117,91.4686,isfakiqbal@iut-dhaka.edu,01837121760
"Dowarabazar Police Station","Sunamganj","Sylhet",25.0282,91.3268,isfakiqbal@iut-dhaka.edu,01837121760
"Jagannathpur Police Station","Sunamganj","Sylhet",25.0412,91.4298,isfakiqbal@iut-dhaka.edu,01837121760
"Jamalganj Police Station","Sunamganj","Sylhet",25.1009,91.4179,isfakiqbal@iut-dhaka.edu,01837121760
"Sullah Police Station","Sunamganj","Sylhet",25.0760,91.3931,isfakiqbal@iut-dhaka.edu,01837121760
"Tahirpur Police Station","Sunamganj","Sylhet",25.0301,91.3517,isfakiqbal@iut-dhaka.edu,01837121760
"South Sunamganj Police Station","Sunamganj","Sylhet",25.1265,91.3585,isfakiqbal@iut-dhaka.edu,01837121760
"Madhyanagar Police Station","Sunamganj","Sylhet",25.0022,91.4087,isfakiqbal@iut-dhaka.edu,01837121760
"Kotwali Police Station","Rangpur","Rangpur",25.7439,89.2752,isfakiqbal@iut-dhaka.edu,01837121760
"Tajhat Police Station","Rangpur","Rangpur",25.7608,89.2762,isfakiqbal@iut-dhaka.edu,01837121760
"Mahiganj Police Station","Rangpur","Rangpur",25.8187,89.2855,isfakiqbal@iut-dhaka.edu,01837121760
"Haragach Police Station","Rangpur","Rangpur",25.7341,89.3250,isfakiqbal@iut-dhaka.edu,01837121760
"Parsuram Police Station","Rangpur","Rangpur",25.7676,89.2053,isfakiqbal@iut-dhaka.edu,01837121760
"Hazirhat Police Station","Rangpur","Rangpur",25.7884,89.2687,isfakiqbal@iut-dhaka.edu,01837121760
"Badarganj Police Station","Rangpur","Rangpur",25.7420,89.2337,isfakiqbal@iut-dhaka.edu,01837121760
"Gangachara Police Station","Rangpur","Rangpur",25.6774,89.2172,isfakiqbal@iut-dhaka.edu,01837121760
"Kaunia Police Station","Rangpur","Rangpur",25.7907,89.3001,isfakiqbal@iut-dhaka.edu,01837121760
"Rangpur Sadar Police Station","Rangpur","Rangpur",25.7175,89.3225,isfakiqbal@iut-dhaka.edu,01837121760
"Mithapukur Police Station","Rangpur","Rangpur",25.7193,89.2338,isfakiqbal@iut-dhaka.edu,01837121760
"Pirgachha Police Station","Rangpur","Rangpur",25.7592,89.2300,isfakiqbal@iut-dhaka.edu,01837121760
"Pirganj Police Station","Rangpur","Rangpur",25.7006,89.2571,isfakiqbal@iut-dhaka.edu,01837121760
"Taraganj Police Station","Rangpur","Rangpur",25.6879,89.3481,isfakiqbal@iut-dhaka.edu,01837121760
"Kotwali Police Station","Dinajpur","Rangpur",25.6217,88.6355,isfakiqbal@iut-dhaka.edu,01837121760
"Birampur Police Station","Dinajpur","Rangpur",25.6784,88.5857,isfakiqbal@iut-dhaka.edu,01837121760
"Birganj Police Station","Dinajpur","Rangpur",25.6584,88.6150,isfakiqbal@iut-dhaka.edu,01837121760
"Biral Police Station","Dinajpur","Rangpur",25.6888,88.6895,isfakiqbal@iut-dhaka.edu,01837121760
"Bochaganj Police Station","Dinajpur","Rangpur",25.5691,88.6992,isfakiqbal@iut-dhaka.edu,01837121760
"Chirirbandar Police Station","Dinajpur","Rangpur",25.6812,88.5689,isfakiqbal@iut-dhaka.edu,01837121760
"Fulbari Police Station","Dinajpur","Rangpur",25.5601,88.6009,isfakiqbal@iut-dhaka.edu,01837121760
"Ghoraghat Police Station","Dinajpur","Rangpur",25.6115,88.6850,isfakiqbal@iut-dhaka.edu,01837121760
"Hakimpur Police Station","Dinajpur","Rangpur",25.5847,88.6996,isfakiqbal@iut-dhaka.edu,01837121760
"Kaharole Police Station","Dinajpur","Rangpur",25.5906,88.6450,isfakiqbal@iut-dhaka.edu,01837121760
"Khansama Police Station","Dinajpur","Rangpur",25.6362,88.6453,isfakiqbal@iut-dhaka.edu,01837121760
"Nawabganj Police Station","Dinajpur","Rangpur",25.6195,88.6558,isfakiqbal@iut-dhaka.edu,01837121760
"Parbatipur Police Station","Dinajpur","Rangpur",25.5700,88.6833,isfakiqbal@iut-dhaka.edu,01837121760
"Gaibandha Sadar Police Station","Gaibandha","Rangpur",25.3288,89.5281,isfakiqbal@iut-dhaka.edu,01837121760
"Fulchhari Police Station","Gaibandha","Rangpur",25.3945,89.5985,isfakiqbal@iut-dhaka.edu,01837121760
"Gobindaganj Police Station","Gaibandha","Rangpur",25.3694,89.5543,isfakiqbal@iut-dhaka.edu,01837121760
"Palashbari Police Station","Gaibandha","Rangpur",25.2862,89.5334,isfakiqbal@iut-dhaka.edu,01837121760
"Sadullapur Police Station","Gaibandha","Rangpur",25.2860,89.5514,isfakiqbal@iut-dhaka.edu,01837121760
"Saghata Police Station","Gaibandha","Rangpur",25.3245,89.4767,isfakiqbal@iut-dhaka.edu,01837121760
"Sundarganj Police Station","Gaibandha","Rangpur",25.2549,89.4821,isfakiqbal@iut-dhaka.edu,01837121760
"Kurigram Sadar Police Station","Kurigram","Rangpur",25.8054,89.6362,isfakiqbal@iut-dhaka.edu,01837121760
"Nageshwari Police Station","Kurigram","Rangpur",25.7671,89.5857,isfakiqbal@iut-dhaka.edu,01837121760
"Bhurungamari Police Station","Kurigram","Rangpur",25.7797,89.6823,isfakiqbal@iut-dhaka.edu,01837121760
"Fulbari Police Station","Kurigram","Rangpur",25.8564,89.5995,isfakiqbal@iut-dhaka.edu,01837121760
"Rajarhat Police Station","Kurigram","Rangpur",25.8104,89.6677,isfakiqbal@iut-dhaka.edu,01837121760
"Ulipur Police Station","Kurigram","Rangpur",25.7556,89.6854,isfakiqbal@iut-dhaka.edu,01837121760
"Chilmari Police Station","Kurigram","Rangpur",25.7655,89.6716,isfakiqbal@iut-dhaka.edu,01837121760
"Rowmari Police Station","Kurigram","Rangpur",25.7416,89.6972,isfakiqbal@iut-dhaka.edu,01837121760
"Char Rajibpur Police Station","Kurigram","Rangpur",25.8090,89.5676,isfakiqbal@iut-dhaka.edu,01837121760
"Kachakata Police Station","Kurigram","Rangpur",25.7440,89.5696,isfakiqbal@iut-dhaka.edu,01837121760
"Lalmonirhat Sadar Police Station","Lalmonirhat","Rangpur",25.9165,89.4532,isfakiqbal@iut-dhaka.edu,01837121760
"Aditmari Police Station","Lalmonirhat","Rangpur",25.8842,89.3968,isfakiqbal@iut-dhaka.edu,01837121760
"Kaliganj Police Station","Lalmonirhat","Rangpur",25.9672,89.4788,isfakiqbal@iut-dhaka.edu,01837121760
"Hatibandha Police Station","Lalmonirhat","Rangpur",25.9538,89.4903,isfakiqbal@iut-dhaka.edu,01837121760
"Patgram Police Station","Lalmonirhat","Rangpur",25.8633,89.4883,isfakiqbal@iut-dhaka.edu,01837121760
"Nilphamari Sadar Police Station","Nilphamari","Rangpur",25.9318,88.8561,isfakiqbal@iut-dhaka.edu,01837121760
"Saidpur Police Station","Nilphamari","Rangpur",26.0040,88.8392,isfakiqbal@iut-dhaka.edu,01837121760
"Jaldhaka Police Station","Nilphamari","Rangpur",25.9925,88.8047,isfakiqbal@iut-dhaka.edu,01837121760
"Kishoreganj Police Station","Nilphamari","Rangpur",25.8610,88.9062,isfakiqbal@iut-dhaka.edu,01837121760
"Domar Police Station","Nilphamari","Rangpur",25.9847,88.9203,isfakiqbal@iut-dhaka.edu,01837121760
"Dimla Police Station","Nilphamari","Rangpur",25.9599,88.8901,isfakiqbal@iut-dhaka.edu,01837121760
"Panchagarh Sadar Police Station","Panchagarh","Rangpur",26.3411,88.5542,isfakiqbal@iut-dhaka.edu,01837121760
"Boda Police Station","Panchagarh","Rangpur",26.2954,88.5956,isfakiqbal@iut-dhaka.edu,01837121760
"Debiganj Police Station","Panchagarh","Rangpur",26.3271,88.5769,isfakiqbal@iut-dhaka.edu,01837121760
"Atwari Police Station","Panchagarh","Rangpur",26.3014,88.5968,isfakiqbal@iut-dhaka.edu,01837121760
"Tetulia Police Station","Panchagarh","Rangpur",26.3076,88.6145,isfakiqbal@iut-dhaka.edu,01837121760
"Thakurgaon Sadar Police Station","Thakurgaon","Rangpur",26.0337,88.4617,isfakiqbal@iut-dhaka.edu,01837121760
"Baliadangi Police Station","Thakurgaon","Rangpur",25.9963,88.5057,isfakiqbal@iut-dhaka.edu,01837121760
"Haripur Police Station","Thakurgaon","Rangpur",26.0264,88.5054,isfakiqbal@iut-dhaka.edu,01837121760
"Pirganj Police Station","Thakurgaon","Rangpur",25.9603,88.4026,isfakiqbal@iut-dhaka.edu,01837121760
"Ranishankail Police Station","Thakurgaon","Rangpur",26.0048,88.5289,isfakiqbal@iut-dhaka.edu,01837121760
"Kotwali Police Station","Mymensingh","Mymensingh",24.7471,90.4203,isfakiqbal@iut-dhaka.edu,01837121760
"Muktagachha Police Station","Mymensingh","Mymensingh",24.7545,90.3680,isfakiqbal@iut-dhaka.edu,01837121760
"Fulbaria Police Station","Mymensingh","Mymensingh",24.7064,90.4401,isfakiqbal@iut-dhaka.edu,01837121760
"Trishal Police Station","Mymensingh","Mymensingh",24.7356,90.4371,isfakiqbal@iut-dhaka.edu,01837121760
"Bhaluka Police Station","Mymensingh","Mymensingh",24.7634,90.3771,isfakiqbal@iut-dhaka.edu,01837121760
"Gaffargaon Police Station","Mymensingh","Mymensingh",24.7305,90.4643,isfakiqbal@iut-dhaka.edu,01837121760
"Nandail Police Station","Mymensingh","Mymensingh",24.7367,90.3756,isfakiqbal@iut-dhaka.edu,01837121760
"Ishwarganj Police Station","Mymensingh","Mymensingh",24.7513,90.3657,isfakiqbal@iut-dhaka.edu,01837121760
"Gouripur Police Station","Mymensingh","Mymensingh",24.8101,90.4440,isfakiqbal@iut-dhaka.edu,01837121760
"Phulpur Police Station","Mymensingh","Mymensingh",24.7752,90.4252,isfakiqbal@iut-dhaka.edu,01837121760
"Haluaghat Police Station","Mymensingh","Mymensingh",24.6887,90.4805,isfakiqbal@iut-dhaka.edu,01837121760
"Dhobaura Police Station","Mymensingh","Mymensingh",24.7647,90.4122,isfakiqbal@iut-dhaka.edu,01837121760
"Tara Khanda Police Station","Mymensingh","Mymensingh",24.7116,90.3993,isfakiqbal@iut-dhaka.edu,01837121760
"Pagla Police Station","Mymensingh","Mymensingh",24.7808,90.4854,isfakiqbal@iut-dhaka.edu,01837121760
"Jamalpur Sadar Police Station","Jamalpur","Mymensingh",24.9375,89.9378,isfakiqbal@iut-dhaka.edu,01837121760
"Melandah Police Station","Jamalpur","Mymensingh",24.9720,90.0003,isfakiqbal@iut-dhaka.edu,01837121760
"Islampur Police Station","Jamalpur","Mymensingh",24.8655,89.9572,isfakiqbal@iut-dhaka.edu,01837121760
"Dewanganj Police Station","Jamalpur","Mymensingh",24.9303,89.9798,isfakiqbal@iut-dhaka.edu,01837121760
"Sarishabari Police Station","Jamalpur","Mymensingh",24.9791,89.8656,isfakiqbal@iut-dhaka.edu,01837121760
"Madarganj Police Station","Jamalpur","Mymensingh",24.9211,89.9594,isfakiqbal@iut-dhaka.edu,01837121760
"Bakshiganj Police Station","Jamalpur","Mymensingh",25.0093,89.9757,isfakiqbal@iut-dhaka.edu,01837121760
"Netrokona Sadar Police Station","Netrokona","Mymensingh",24.8709,90.7279,isfakiqbal@iut-dhaka.edu,01837121760
"Barhatta Police Station","Netrokona","Mymensingh",24.8969,90.7777,isfakiqbal@iut-dhaka.edu,01837121760
"Durgapur Police Station","Netrokona","Mymensingh",24.8328,90.7970,isfakiqbal@iut-dhaka.edu,01837121760
"Khaliajuri Police Station","Netrokona","Mymensingh",24.8102,90.7683,isfakiqbal@iut-dhaka.edu,01837121760
"Kalmakanda Police Station","Netrokona","Mymensingh",24.8563,90.7233,isfakiqbal@iut-dhaka.edu,01837121760
"Kendua Police Station","Netrokona","Mymensingh",24.8498,90.7060,isfakiqbal@iut-dhaka.edu,01837121760
"Madan Police Station","Netrokona","Mymensingh",24.8635,90.6888,isfakiqbal@iut-dhaka.edu,01837121760
"Mohanganj Police Station","Netrokona","Mymensingh",24.8897,90.7855,isfakiqbal@iut-dhaka.edu,01837121760
"Purbadhala Police Station","Netrokona","Mymensingh",24.9088,90.6724,isfakiqbal@iut-dhaka.edu,01837121760
"Atpara Police Station","Netrokona","Mymensingh",24.8438,90.7905,isfakiqbal@iut-dhaka.edu,01837121760
"Sherpur Sadar Police Station","Sherpur","Mymensingh",25.0205,90.0153,isfakiqbal@iut-dhaka.edu,01837121760
"Nakatla Police Station","Sherpur","Mymensingh",24.9501,90.0730,isfakiqbal@iut-dhaka.edu,01837121760
"Nalitabari Police Station","Sherpur","Mymensingh",24.9699,90.0777,isfakiqbal@iut-dhaka.edu,01837121760
"Sreebardi Police Station","Sherpur","Mymensingh",24.9912,89.9464,isfakiqbal@iut-dhaka.edu,01837121760
"Jhenaigati Police Station","Sherpur","Mymensingh",24.9962,90.0219,isfakiqbal@iut-dhaka.edu,01837121760
